ONEWEB-0228             
1 48780U 21045P   24008.59761071 -.00000137  00000+0 -39849-3 0  9997
2 48780  87.8984  76.4687 0001847 104.9752 255.1583 13.15549225127230
